#dP2023  6 24 12  0  0.00000000      96 __u+U ITR00 EXT  IAC
## 2267 561600.00000000   900.00000000 60119 0.5000000000000
+  118   C06C07C08C09C10C11C12C13C14C16C19C20C21C22C23C24C25
+        C26C27C28C29C30C32C33C34C35C36C37C38C39C40C41C42C43
+        C44C45C46E02E03E04E07E08E09E10E11E12E13E14E15E18E19
+        E21E24E25E26E27E30E31E33E34E36G01G02G03G04G05G06G07
+        G08G09G10G11G12G13G14G15G16G17G18G19G20G21G22G23G24
+        G25G26G27G28G29G30G31G32J02J03J04R01R02R03R04R05R07
+        R08R09R11R12R13R14R15R16R17R18R19R20R21R22R24R25  0
++         8  9 10  9  7 10  9  8  9  8  7  9  9  7  8  8  8
++         8  8  9  8  7  8  8  9  6  7  9 10  9  8  8  8  8
++         9  8  9  7  8  8  8  7  8  8  7  8  8  7  7  7  7
++         7  7  8  6  6  7  7  8  7  7  7  7  8  6  9  8  7
++        10  7  8  8  7  9  7  8  7  7  8  6  8  7  7  8  7
++         7  7  7  7  8  7  8  8  8 10  9  7  6  9  7  8  9
++         9  8  7  7  9 10  7  8  8  7  9  9  8  7  7  8  0
%c M  cc GPS ccc cccc cccc cccc cccc ccccc ccccc ccccc ccccc
%c cc cc ccc ccc cccc cccc cccc cccc ccccc ccccc ccccc ccccc
%f  0.0000000  0.000000000  0.00000000000  0.000000000000000
%f  0.0000000  0.000000000  0.00000000000  0.000000000000000
%i    0    0    0    0      0      0      0      0         0
%i    0    0    0    0      0      0      0      0         0
/* IAC                                ULTRA-RAPID PREDICTION
/* S/V CLOCKS ARE ALIGNED TO GNSS TIME                      
/* G:C1WC2W R:C1PC2P E:C1XC5X C:C2IC6I J:C1CC2S             
/* PCV:IGS20_2247 OL/AL:FES2004  NONE     YN ORB:CoN CLK:CoN
*  2023 06 24 19 45  0.00000000
PC06 -19077.519845  31712.252516  19964.137306   -172.174461
PC07  -4039.889145  39133.995602  15502.188639   -222.412957
PC08  -2961.912032  20786.395236 -36568.452693    449.555739
PC09  -9663.628111  30271.415794  27850.495604    495.274140
PC10   1185.700756  41204.541648  10444.197206    -95.343745
PC11 -21924.064796  13859.093152  10388.605169    691.487555
PC12 -16670.407998  -3365.080852  22157.723666    737.368181
PC13   4321.982984  23845.314375 -34305.753502    302.792704
PC14 -14204.336341   6920.552220 -22989.452847    460.747122
PC16 -19967.665451  31617.322631  19441.847916     31.020992
PC19   8967.083877 -16540.873304  20622.634278   -928.338286
PC20  16773.997872   2098.026314  22220.854641    481.186331
PC21 -15031.517305 -21020.570236 -10478.562475   -926.873385
PC22  -4404.539239 -26632.565266   7003.790755   -425.939180
PC23    803.540954  16609.296604  22421.264506   -968.547499
PC24 -27607.075942  -2991.854552   2878.124624     99.546449
PC25 -18003.001948  10604.366050  18501.538806    154.203425
PC26 -21132.369333 -12847.706633 -12970.576259   -139.413974
PC27  11194.141366  11419.648714 -22893.816919    159.989125
PC28  -4234.871276  22216.427130 -16351.822062    118.978648
PC29  18183.048670 -21125.991293  -1348.708926    138.456316
PC30  20779.633598  -6234.229676 -17574.797467     -1.519438
PC32  15197.115521  20976.092001  10423.101881   -545.316960
PC33  -8909.545480  16566.327538 -20618.385675   -900.851775
PC34 -21073.865674   7490.801527  16661.427060    200.352631
PC35   3881.011099 -22594.121558  15920.875568    601.544207
PC36  18886.016821  -9745.389195 -18054.901680   -365.038908
PC37  19957.898342  13768.180242  13815.776153   -787.500692
PC38 -11816.929566  19920.222347 -35223.564462     87.292908
PC39 -23312.145968  32280.652590  13517.975568     -3.479786
PC40  -8106.707955  37121.800307  18555.033359    -27.255799
PC41   4070.324794  26541.449530  -7574.783031   -914.681083
PC42 -17062.725250  -3575.228261 -21740.789631   -636.708415
PC43 -18601.950856  20677.242349   2134.687713     27.706186
PC44 -11535.404465 -11273.716183  22755.576644    148.333098
PC45  -1418.773598 -16546.159110 -22422.775141   -114.426191
PC46  27479.313873   2034.111915  -4290.660019    -63.966391
PE02 -10243.004942  13300.329008  24378.783893     45.958638
PE03 -12743.984088  24700.963346 -10202.214898    -29.593190
PE04    460.504033 -28474.810241  -8050.368331   -152.091613
PE07  12207.477739  15851.127023  21829.275062    -55.108942
PE08   -699.103873  28562.179609   7776.085151   -104.147102
PE09 -12021.492300 -15939.512775 -21841.268424    -61.640911
PE10 -10093.473714 -13267.789231  24445.553790   -543.646906
PE11 -20241.877476  -7344.525729  20286.340998   2312.595879
PE12    724.179932 -16781.768182  24363.683034   -592.647723
PE13  19628.458889   7739.391332 -20767.817695    -19.308808
PE14   7859.623165  25703.755199 -18206.932550    263.470316
PE15  -1103.441971  16794.979109 -24350.841973    -31.988655
PE18  -8835.689170 -15219.508770  15751.079987    220.012972
PE19  13982.515585 -22909.861945  12490.410621  -2224.886067
PE21  22655.088257   3343.139096 -18753.810591   -536.905298
PE24 -22301.469589 -19433.489812   1297.578766   -173.190465
PE25 -22784.566799  -3656.014926  18546.073624   -607.288040
PE26  28628.760876  -6152.407272  -4325.187233    143.754324
PE27  22632.614345  18970.939881  -1971.297705    -82.858646
PE30   8719.733941  23230.487792  16127.268995   -282.190712
PE31  -9296.692518 -23252.772533 -15770.822468   -526.586741
PE33  21021.910947 -15858.201765  13522.655467   -442.747498
PE34 -20868.966216  15953.513283 -13664.109677    -52.572779
PE36 -28590.213844   5728.073134   5068.091789    -76.168433
PG01   1430.828790  14782.916322 -22338.171025    176.423227
PG02  -5137.549733  16391.488762 -19711.302861   -582.656969
PG03  10237.362891  21434.320125 -12144.084649   -258.377592
PG04   1226.138024  23929.381038  11346.721431     77.325133
PG05   4649.048041 -15288.315870  21016.979474   -132.373777
PG06  25965.267980  -4988.679483  -2971.138135    583.098374
PG07  17607.761936   8835.475548  18497.976023    143.439503
PG08  -5958.698122  25659.872950    220.668075   -128.974042
PG09   9135.286858  17084.264641  18076.269322   -128.032321
PG10 -21367.352749  -7975.405287 -13694.685272    -42.508544
PG11  20195.962720 -12779.834349  11549.918427   -248.736955
PG12  -5847.957817 -21684.714523 -14515.161740   -392.651853
PG13  13388.274548 -21974.361991   5938.732226    538.420813
PG14  21584.584646  10709.988328 -11332.051427    101.276265
PG15   2256.697826 -26318.986389   -819.304572     51.897305
PG16  -9768.172869  11505.081328  21520.812589   -488.061592
PG17  15174.040900    284.942195 -21383.851929    719.348729
PG18 -19741.261113  -6529.804200  16617.040709   -320.457050
PG19  16777.427623  -7287.086035 -19360.724037    335.011644
PG20  13255.867687  -9209.300336  21097.475361    426.225929
PG21  -7714.298045  16597.776134 -18370.404945    152.816983
PG22 -16423.807973  11434.629201 -16930.178847    502.944947
PG23 -20708.543459 -16537.530426  -2774.011298     36.403883
PG24   2439.339413 -17103.266257 -20435.842682   -236.046311
PG25 -16656.410912 -20418.099878  -4641.400960    451.946749
PG26 -18571.938431   2492.658878  18829.993494    238.263042
PG27 -12688.719009  20370.789819  10661.962493      9.963704
PG28 -25693.303831   4499.784443  -5019.450900     83.619579
PG29  -5953.484738 -19088.940304  17379.763289   -603.785450
PG30  24278.820978   1838.954192  11038.113392   -508.863832
PG31 -23686.813265  10689.908989   6305.411904   -218.817406
PG32 -15782.684733   2655.697207 -20983.199423   -507.388791
PJ02 -26492.267904  21522.666354  29854.442543     -0.788412
PJ03 -34270.250138  23565.267132  -1854.335064      7.402623
PJ04 -19679.098616  27312.039241 -20305.394508     95.809525
PR01  10415.264132  18333.895938  14370.358807     60.078379
PR02  10961.963552    275.664231  23073.590345    -22.661043
PR03   5660.259620 -17508.607081  17740.149040     80.300120
PR04  -2528.550757 -25234.400420   2819.204891    192.468298
PR05  -9330.478304 -19415.421137 -13666.029090    114.712114
PR07  -5281.667327  18104.499906 -17109.713102     58.748311
PR08   2831.483804  25209.851937  -2467.042233    -71.394348
PR09 -23479.940082  -3326.811609   9309.018272    127.602585
PR11   4483.116493  12611.820790  21731.453850    -87.840301
PR12  20776.638737  12120.947408   8502.766877     28.445456
PR13  23911.595439   4821.240636  -7472.797267    -36.409875
PR14  12467.425480  -6435.235452 -21291.461835     24.853716
PR15  -5650.529574 -13002.644725 -21179.245010     88.340016
PR16 -20718.135363 -11974.342162  -8767.924998     15.977075
PR17  18551.577381 -17077.449300   3709.452562    641.957255
PR18   7507.636568 -16308.196137  18149.963324     88.263445
PR19  -6103.102450  -8375.151094  23300.384551   -237.463263
PR20 -20002.727115   6936.318207  14200.023597    -95.364772
PR21 -18103.391972  17263.256149  -5073.813968    -17.736486
PR22  -6976.405229  15996.199563 -18578.080693     84.513513
PR24  20116.740530  -7869.125773 -13543.425667    -13.486348
PR25 -19352.514770  16247.138665  -3574.033762     58.291779
EOF
